sat05129
1 05129U 70025JN  20046.53784786  .00000373  00000-0  58049-3 0  9993
2 05129  99.2666 251.2772 0201221 161.6362 255.8416 13.49057708421255
